{
  "type": "FeatureCollection",
  "features": [
    {
      "type": "Feature",
      "properties": {
        "norad_id": 43783,
        "name": "KAZSTSAT",
        "group": "resource",
        "lat": -82.44561749404002,
        "lon": 110.48332545688254,
        "alt_km": 572.3984619742923,
        "timestamp": "2025-12-20T20:38:44.101820+00:00",
        "meta_object_name": "KAZSTSAT",
        "meta_object_id": "2018-099AB",
        "meta_epoch": "2025-12-20T08:13:38.358048",
        "meta_mean_motion": 14.99364446,
        "meta_eccentricity": 0.00059921,
        "meta_inclination": 97.453,
        "meta_ra_of_asc_node": 29.2006,
        "meta_arg_of_pericenter": 296.0464,
        "meta_mean_anomaly": 64.0142,
        "meta_ephemeris_type": 0,
        "meta_classification_type": "U",
        "meta_norad_cat_id": 43783,
        "meta_element_set_no": 999,
        "meta_rev_at_epoch": 38450,
        "meta_bstar": 2.1221197e-05,
        "meta_mean_motion_dot": 2.04e-06,
        "meta_mean_motion_ddot": 0,
        "tle_line1": "1 43783U 18099AB  25354.34280507  .00000204  00000+0  21221-4 0  9997",
        "tle_line2": "2 43783  97.4530  29.2006 0005992 296.0464  64.0142 14.99364446384507"
      },
      "geometry": {
        "type": "Point",
        "coordinates": [
          110.48332545688254,
          -82.44561749404002
        ]
      }
    },
    {
      "type": "Feature",
      "properties": {
        "norad_id": 43831,
        "name": "SAUDISAT 5A",
        "group": "resource",
        "lat": 12.623703245472846,
        "lon": 53.2418212141684,
        "alt_km": 483.7061703668096,
        "timestamp": "2025-12-20T20:38:44.101831+00:00",
        "meta_object_name": "SAUDISAT 5A",
        "meta_object_id": "2018-102A",
        "meta_epoch": "2025-12-20T14:17:38.389344",
        "meta_mean_motion": 15.25745605,
        "meta_eccentricity": 0.00114011,
        "meta_inclination": 97.3344,
        "meta_ra_of_asc_node": 54.6353,
        "meta_arg_of_pericenter": 52.1049,
        "meta_mean_anomaly": 308.1219,
        "meta_ephemeris_type": 0,
        "meta_classification_type": "U",
        "meta_norad_cat_id": 43831,
        "meta_element_set_no": 999,
        "meta_rev_at_epoch": 38842,
        "meta_bstar": 0.00016725583,
        "meta_mean_motion_dot": 4.203e-05,
        "meta_mean_motion_ddot": 0,
        "tle_line1": "1 43831U 18102A   25354.59558321  .00004203  00000+0  16726-3 0  9991",
        "tle_line2": "2 43831  97.3344  54.6353 0011401  52.1049 308.1219 15.25745605388424"
      },
      "geometry": {
        "type": "Point",
        "coordinates": [
          53.2418212141684,
          12.623703245472846
        ]
      }
    },
    {
      "type": "Feature",
      "properties": {
        "norad_id": 43833,
        "name": "SAUDISAT 5B",
        "group": "resource",
        "lat": 73.7164099088736,
        "lon": 31.44715380974967,
        "alt_km": 472.7554610149873,
        "timestamp": "2025-12-20T20:38:44.101841+00:00",
        "meta_object_name": "SAUDISAT 5B",
        "meta_object_id": "2018-102C",
        "meta_epoch": "2025-12-20T14:01:20.615232",
        "meta_mean_motion": 15.26094339,
        "meta_eccentricity": 0.00121233,
        "meta_inclination": 97.3439,
        "meta_ra_of_asc_node": 57.3769,
        "meta_arg_of_pericenter": 54.1954,
        "meta_mean_anomaly": 306.041,
        "meta_ephemeris_type": 0,
        "meta_classification_type": "U",
        "meta_norad_cat_id": 43833,
        "meta_element_set_no": 999,
        "meta_rev_at_epoch": 38853,
        "meta_bstar": 0.00015852032,
        "meta_mean_motion_dot": 4.023e-05,
        "meta_mean_motion_ddot": 0,
        "tle_line1": "1 43833U 18102C   25354.58426638  .00004023  00000+0  15852-3 0  9996",
        "tle_line2": "2 43833  97.3439  57.3769 0012123  54.1954 306.0410 15.26094339388535"
      },
      "geometry": {
        "type": "Point",
        "coordinates": [
          31.44715380974967,
          73.7164099088736
        ]
      }
    },
    {
      "type": "Feature",
      "properties": {
        "norad_id": 44622,
        "name": "GAOFEN-10R",
        "group": "resource",
        "lat": -16.518915405444982,
        "lon": 119.999334836966,
        "alt_km": 630.4832916441219,
        "timestamp": "2025-12-20T20:38:44.101851+00:00",
        "meta_object_name": "GAOFEN-10R",
        "meta_object_id": "2019-066A",
        "meta_epoch": "2025-12-20T14:54:12.195936",
        "meta_mean_motion": 14.82816223,
        "meta_eccentricity": 0.00073483,
        "meta_inclination": 98.0289,
        "meta_ra_of_asc_node": 302.1583,
        "meta_arg_of_pericenter": 19.1239,
        "meta_mean_anomaly": 341.0249,
        "meta_ephemeris_type": 0,
        "meta_classification_type": "U",
        "meta_norad_cat_id": 44622,
        "meta_element_set_no": 999,
        "meta_rev_at_epoch": 33591,
        "meta_bstar": 0.000138185,
        "meta_mean_motion_dot": 1.064e-05,
        "meta_mean_motion_ddot": 0,
        "tle_line1": "1 44622U 19066A   25354.62097449  .00001064  00000+0  13819-3 0  9995",
        "tle_line2": "2 44622  98.0289 302.1583 0007348  19.1239 341.0249 14.82816223335916"
      },
      "geometry": {
        "type": "Point",
        "coordinates": [
          119.999334836966,
          -16.518915405444982
        ]
      }
    },
    {
      "type": "Feature",
      "properties": {
        "norad_id": 44804,
        "name": "CARTOSAT-3",
        "group": "resource",
        "lat": -18.5908015950988,
        "lon": 56.866352114628455,
        "alt_km": 511.03504237313155,
        "timestamp": "2025-12-20T20:38:44.101861+00:00",
        "meta_object_name": "CARTOSAT-3",
        "meta_object_id": "2019-081A",
        "meta_epoch": "2025-12-20T14:24:17.228160",
        "meta_mean_motion": 15.19214799,
        "meta_eccentricity": 0.00139605,
        "meta_inclination": 97.4578,
        "meta_ra_of_asc_node": 54.0843,
        "meta_arg_of_pericenter": 58.3926,
        "meta_mean_anomaly": 301.8669,
        "meta_ephemeris_type": 0,
        "meta_classification_type": "U",
        "meta_norad_cat_id": 44804,
        "meta_element_set_no": 999,
        "meta_rev_at_epoch": 33635,
        "meta_bstar": 0.00020954723,
        "meta_mean_motion_dot": 4.354e-05,
        "meta_mean_motion_ddot": 0,
        "tle_line1": "1 44804U 19081A   25354.60019940  .00004354  00000+0  20955-3 0  9996",
        "tle_line2": "2 44804  97.4578  54.0843 0013960  58.3926 301.8669 15.19214799336359"
      },
      "geometry": {
        "type": "Point",
        "coordinates": [
          56.866352114628455,
          -18.5908015950988
        ]
      }
    },
    {
      "type": "Feature",
      "properties": {
        "norad_id": 44819,
        "name": "GAOFEN-12 01",
        "group": "resource",
        "lat": 40.28810620384493,
        "lon": -5.755522169930166,
        "alt_km": 625.2393795721418,
        "timestamp": "2025-12-20T20:38:44.101871+00:00",
        "meta_object_name": "GAOFEN-12 01",
        "meta_object_id": "2019-082A",
        "meta_epoch": "2025-12-20T13:58:28.484832",
        "meta_mean_motion": 14.80665723,
        "meta_eccentricity": 0.00018315,
        "meta_inclination": 97.8124,
        "meta_ra_of_asc_node": 0.6574,
        "meta_arg_of_pericenter": 194.5448,
        "meta_mean_anomaly": 165.5712,
        "meta_ephemeris_type": 0,
        "meta_classification_type": "U",
        "meta_norad_cat_id": 44819,
        "meta_element_set_no": 999,
        "meta_rev_at_epoch": 32766,
        "meta_bstar": 4.8850467e-05,
        "meta_mean_motion_dot": 3.25e-06,
        "meta_mean_motion_ddot": 0,
        "tle_line1": "1 44819U 19082A   25354.58227413  .00000325  00000+0  48850-4 0  9995",
        "tle_line2": "2 44819  97.8124   0.6574 0001831 194.5448 165.5712 14.80665723327662"
      },
      "geometry": {
        "type": "Point",
        "coordinates": [
          -5.755522169930166,
          40.28810620384493
        ]
      }
    },
    {
      "type": "Feature",
      "properties": {
        "norad_id": 44873,
        "name": "CSG-1",
        "group": "resource",
        "lat": -15.350266416251543,
        "lon": -6.117040835845824,
        "alt_km": 627.6845353644321,
        "timestamp": "2025-12-20T20:38:44.101881+00:00",
        "meta_object_name": "CSG-1",
        "meta_object_id": "2019-092A",
        "meta_epoch": "2025-12-20T14:54:22.143168",
        "meta_mean_motion": 14.82149991,
        "meta_eccentricity": 0.00014746,
        "meta_inclination": 97.8803,
        "meta_ra_of_asc_node": 175.8265,
        "meta_arg_of_pericenter": 86.1146,
        "meta_mean_anomaly": 274.0236,
        "meta_ephemeris_type": 0,
        "meta_classification_type": "U",
        "meta_norad_cat_id": 44873,
        "meta_element_set_no": 999,
        "meta_rev_at_epoch": 32502,
        "meta_bstar": 5.6408586e-05,
        "meta_mean_motion_dot": 3.97e-06,
        "meta_mean_motion_ddot": 0,
        "tle_line1": "1 44873U 19092A   25354.62108962  .00000397  00000+0  56409-4 0  9996",
        "tle_line2": "2 44873  97.8803 175.8265 0001474  86.1146 274.0236 14.82149991325023"
      },
      "geometry": {
        "type": "Point",
        "coordinates": [
          -6.117040835845824,
          -15.350266416251543
        ]
      }
    }
  ]
}